{
  "norad_id": 56027,
  "name": "STARLINK-5777",
  "history": [
    {
      "epoch": "2026-03-28T20:00:01.999872Z",
      "apogee_km": 486.6723659144027,
      "perigee_km": 484.48627226677127,
      "latitude_deg": 6.326956664292048,
      "longitude_deg": -16.370825703528702,
      "height_km": 484.96779649255063,
      "semi_major_axis_km": 6863.716319090587,
      "eccentricity": 0.00015925,
      "inclination_deg": 42.9993,
      "raan_deg": 296.6766,
      "arg_perigee_deg": 271.9057,
      "mean_anomaly_deg": 258.7842,
      "mean_motion_rev_day": 15.26735393
    },
    {
      "epoch": "2026-03-29T04:00:01.999584Z",
      "apogee_km": 486.69436175764076,
      "perigee_km": 484.36895081689,
      "latitude_deg": -16.8331177106618,
      "longitude_deg": -112.9673663161669,
      "height_km": 488.5652156062322,
      "semi_major_axis_km": 6863.668656287265,
      "eccentricity": 0.0001694,
      "inclination_deg": 42.9995,
      "raan_deg": 294.7939,
      "arg_perigee_deg": 274.2683,
      "mean_anomaly_deg": 290.6536,
      "mean_motion_rev_day": 15.26751296
    },
    {
      "epoch": "2026-03-30T00:00:01.999296Z",
      "apogee_km": 486.76483284429196,
      "perigee_km": 484.57802347908,
      "latitude_deg": 39.84480349822805,
      "longitude_deg": -140.1803672605649,
      "height_km": 489.1648118278546,
      "semi_major_axis_km": 6863.808428161686,
      "eccentricity": 0.0001593,
      "inclination_deg": 42.9992,
      "raan_deg": 290.0954,
      "arg_perigee_deg": 276.0533,
      "mean_anomaly_deg": 194.4731,
      "mean_motion_rev_day": 15.26704661
    },
    {
      "epoch": "2026-03-30T00:00:02.000160Z",
      "apogee_km": 486.76517603471257,
      "perigee_km": 484.5776802886585,
      "latitude_deg": 39.84480393599522,
      "longitude_deg": -140.18037264096276,
      "height_km": 489.1651441802612,
      "semi_major_axis_km": 6863.808428161686,
      "eccentricity": 0.00015935,
      "inclination_deg": 42.9992,
      "raan_deg": 290.0954,
      "arg_perigee_deg": 276.0533,
      "mean_anomaly_deg": 194.4731,
      "mean_motion_rev_day": 15.26704661
    },
    {
      "epoch": "2026-03-30T05:47:57.430752Z",
      "apogee_km": 486.6845814080207,
      "perigee_km": 484.4250540616231,
      "latitude_deg": 8.923326275057376e-06,
      "longitude_deg": 14.104221359326282,
      "height_km": 485.38522009479317,
      "semi_major_axis_km": 6863.691817734822,
      "eccentricity": 0.0001646,
      "inclination_deg": 42.9988,
      "raan_deg": 288.7297,
      "arg_perigee_deg": 267.2826,
      "mean_anomaly_deg": 92.7837,
      "mean_motion_rev_day": 15.26743568
    },
    {
      "epoch": "2026-03-30T19:55:49.841472Z",
      "apogee_km": 486.61051247317755,
      "perigee_km": 484.5028094237741,
      "latitude_deg": -2.2857887095737845e-05,
      "longitude_deg": 158.23356134893564,
      "height_km": 485.3294498043423,
      "semi_major_axis_km": 6863.693660948476,
      "eccentricity": 0.00015354,
      "inclination_deg": 42.9995,
      "raan_deg": 285.4078,
      "arg_perigee_deg": 270.2204,
      "mean_anomaly_deg": 89.8471,
      "mean_motion_rev_day": 15.26742953
    },
    {
      "epoch": "2026-03-31T19:28:57.106848Z",
      "apogee_km": 486.5921410828132,
      "perigee_km": 484.5316586730696,
      "latitude_deg": -2.2160388563664068e-05,
      "longitude_deg": 158.4521440131445,
      "height_km": 485.35702667705635,
      "semi_major_axis_km": 6863.698899877942,
      "eccentricity": 0.0001501,
      "inclination_deg": 43.0007,
      "raan_deg": 279.8739,
      "arg_perigee_deg": 268.9888,
      "mean_anomaly_deg": 91.0791,
      "mean_motion_rev_day": 15.26741205
    },
    {
      "epoch": "2026-04-01T19:02:04.349760Z",
      "apogee_km": 486.512740196692,
      "perigee_km": 484.59365241780506,
      "latitude_deg": 5.272983902607088e-05,
      "longitude_deg": 158.66919955777348,
      "height_km": 485.36596605651505,
      "semi_major_axis_km": 6863.690196307249,
      "eccentricity": 0.0001398,
      "inclination_deg": 43.0017,
      "raan_deg": 274.3383,
      "arg_perigee_deg": 267.8613,
      "mean_anomaly_deg": 92.2079,
      "mean_motion_rev_day": 15.26744109
    },
    {
      "epoch": "2026-04-02T18:35:11.152032Z",
      "apogee_km": 486.62308930339896,
      "perigee_km": 484.47475560967086,
      "latitude_deg": 1.1482094495907694e-06,
      "longitude_deg": 158.88866081474197,
      "height_km": 485.3298488976595,
      "semi_major_axis_km": 6863.685922456535,
      "eccentricity": 0.0001565,
      "inclination_deg": 43.002,
      "raan_deg": 268.8034,
      "arg_perigee_deg": 269.7981,
      "mean_anomaly_deg": 90.2691,
      "mean_motion_rev_day": 15.26745535
    },
    {
      "epoch": "2026-04-02T21:43:35.908608Z",
      "apogee_km": 486.54234644084045,
      "perigee_km": 484.53307430612676,
      "latitude_deg": 2.6971186275030763e-05,
      "longitude_deg": 110.91827219451346,
      "height_km": 485.3294085847338,
      "semi_major_axis_km": 6863.674710373483,
      "eccentricity": 0.00014637,
      "inclination_deg": 43.0017,
      "raan_deg": 268.0651,
      "arg_perigee_deg": 269.1629,
      "mean_anomaly_deg": 90.9055,
      "mean_motion_rev_day": 15.26749276
    },
    {
      "epoch": "2026-04-03T19:42:27.824832Z",
      "apogee_km": 486.3069496979806,
      "perigee_km": 484.47301528825756,
      "latitude_deg": 2.127363380210285e-05,
      "longitude_deg": 135.13341732426412,
      "height_km": 485.76659178695957,
      "semi_major_axis_km": 6863.526982493118,
      "eccentricity": 0.0001336,
      "inclination_deg": 42.9998,
      "raan_deg": 262.8993,
      "arg_perigee_deg": 229.1085,
      "mean_anomaly_deg": 130.9651,
      "mean_motion_rev_day": 15.26798568
    },
    {
      "epoch": "2026-04-04T19:14:55.808448Z",
      "apogee_km": 484.7527183213788,
      "perigee_km": 483.1277784289632,
      "latitude_deg": -6.5965534297897464e-06,
      "longitude_deg": 135.51168953353698,
      "height_km": 484.0112677840446,
      "semi_major_axis_km": 6862.077248375171,
      "eccentricity": 0.0001184,
      "inclination_deg": 42.9997,
      "raan_deg": 257.361,
      "arg_perigee_deg": 248.7391,
      "mean_anomaly_deg": 111.3334,
      "mean_motion_rev_day": 15.27282438
    },
    {
      "epoch": "2026-04-05T10:56:35.160864Z",
      "apogee_km": 484.41435136148993,
      "perigee_km": 482.80691836054666,
      "latitude_deg": 3.4750816605461824e-05,
      "longitude_deg": -104.23767632072764,
      "height_km": 483.42695873375453,
      "semi_major_axis_km": 6861.747634861018,
      "eccentricity": 0.00011713,
      "inclination_deg": 43.0011,
      "raan_deg": 253.6701,
      "arg_perigee_deg": 267.1698,
      "mean_anomaly_deg": 92.902,
      "mean_motion_rev_day": 15.27392487
    },
    {
      "epoch": "2026-04-05T20:21:32.784768Z",
      "apogee_km": 484.18448070142676,
      "perigee_km": 482.72776448150034,
      "latitude_deg": -7.634131493845425e-06,
      "longitude_deg": 111.91897652512525,
      "height_km": 483.46123998720026,
      "semi_major_axis_km": 6861.593122591464,
      "eccentricity": 0.00010615,
      "inclination_deg": 43.0004,
      "raan_deg": 251.4536,
      "arg_perigee_deg": 251.6979,
      "mean_anomaly_deg": 108.3757,
      "mean_motion_rev_day": 15.27444079
    },
    {
      "epoch": "2026-04-06T16:45:30.480480Z",
      "apogee_km": 483.86849447163786,
      "perigee_km": 482.24499880730855,
      "latitude_deg": -2.7645527197135167e-05,
      "longitude_deg": 160.2897824372069,
      "height_km": 482.8925935582329,
      "semi_major_axis_km": 6861.193746639473,
      "eccentricity": 0.00011831,
      "inclination_deg": 43.0005,
      "raan_deg": 246.6526,
      "arg_perigee_deg": 265.8121,
      "mean_anomaly_deg": 94.2595,
      "mean_motion_rev_day": 15.27577445
    },
    {
      "epoch": "2026-04-07T19:26:09.379392Z",
      "apogee_km": 483.8193174628186,
      "perigee_km": 482.2261561719297,
      "latitude_deg": -2.2226851208712626e-05,
      "longitude_deg": 112.7542014510596,
      "height_km": 482.88364896122465,
      "semi_major_axis_km": 6861.159736817373,
      "eccentricity": 0.0001161,
      "inclination_deg": 43.0,
      "raan_deg": 240.3747,
      "arg_perigee_deg": 263.9159,
      "mean_anomaly_deg": 96.156,
      "mean_motion_rev_day": 15.27588803
    },
    {
      "epoch": "2026-04-08T09:33:33.287616Z",
      "apogee_km": 483.8199818554076,
      "perigee_km": 482.20033945666273,
      "latitude_deg": -1.4919381452212814e-05,
      "longitude_deg": -102.99873378648279,
      "height_km": 482.8777039000171,
      "semi_major_axis_km": 6861.147160656034,
      "eccentricity": 0.00011803,
      "inclination_deg": 42.9996,
      "raan_deg": 237.0514,
      "arg_perigee_deg": 263.5416,
      "mean_anomaly_deg": 96.5301,
      "mean_motion_rev_day": 15.27593003
    },
    {
      "epoch": "2026-04-09T15:22:31.378944Z",
      "apogee_km": 483.87739080672327,
      "perigee_km": 482.1840546127578,
      "latitude_deg": 1.511733911940157e-05,
      "longitude_deg": 161.51914211030004,
      "height_km": 482.8832298438742,
      "semi_major_axis_km": 6861.16772270974,
      "eccentricity": 0.0001234,
      "inclination_deg": 43.0002,
      "raan_deg": 230.0358,
      "arg_perigee_deg": 264.8541,
      "mean_anomaly_deg": 95.217,
      "mean_motion_rev_day": 15.27586136
    },
    {
      "epoch": "2026-04-11T16:01:22.357632Z",
      "apogee_km": 484.055527431321,
      "perigee_km": 482.05480379582787,
      "latitude_deg": -2.6102694725200312e-06,
      "longitude_deg": 138.36082594477867,
      "height_km": 482.9095733418259,
      "semi_major_axis_km": 6861.192165613574,
      "eccentricity": 0.0001458,
      "inclination_deg": 42.9999,
      "raan_deg": 218.5878,
      "arg_perigee_deg": 265.5462,
      "mean_anomaly_deg": 94.5223,
      "mean_motion_rev_day": 15.27577973
    }
  ]
}